NORAD_CAT_ID,OBJECT_NAME,OBJECT_TYPE,EPOCH,MEAN_MOTION,ECCENTRICITY,INCLINATION,RA_OF_ASC_NODE,ARG_OF_PERICENTER,MEAN_ANOMALY,BSTAR,MEAN_MOTION_DOT,MEAN_MOTION_DDOT,TLE_LINE0,TLE_LINE1,TLE_LINE2,SEMIMAJOR_AXIS,PERIOD,APOGEE,PERIGEE,DECAYED
55409.0,STARLINK-5047,PAYLOAD,2023-02-17 12:04:27,15.69917629,0.000332,69.9983,42.4215,277.4093,82.6725,6.126e-05,7.157e-05,0.0,0 STARLINK-5047,1 55409U 23014U   23048.50309090  .00007157  00000-0  61260-4 0  9995,2 55409  69.9983  42.4215 0003320 277.4093  82.6725 15.69917629  2846,6737.27,91.725,361.371,356.898,0.0
55409.0,STARLINK-5047,PAYLOAD,2023-02-17 13:36:12,15.69930534,0.0003338,69.9984,42.2427,277.1205,82.9611,0.00013839,0.00016464,0.0,0 STARLINK-5047,1 55409U 23014U   23048.56680565  .00016464  00000-0  13839-3 0  9999,2 55409  69.9984  42.2427 0003338 277.1205  82.9611 15.69930534  3793,6737.233,91.724,361.347,356.849,0.0
55409.0,STARLINK-5047,PAYLOAD,2023-02-17 18:11:27,15.69941257,0.0003424,69.9984,41.705,278.8743,81.2065,0.00063727,0.00077177,0.0,0 STARLINK-5047,1 55409U 23014U   23048.75795575  .00077177  00000-0  63727-3 0  9997,2 55409  69.9984  41.7050 0003424 278.8743  81.2065 15.69941257  2888,6737.202,91.723,361.374,356.76,0.0
55409.0,STARLINK-5047,PAYLOAD,2023-02-17 21:14:57,15.69936362,0.0003573,69.9984,41.3463,282.1075,77.972,0.00047193,0.0005695,0.0,0 STARLINK-5047,1 55409U 23014U   23048.88538994  .00056950  00000-0  47193-3 0  9996,2 55409  69.9984  41.3463 0003573 282.1075  77.9720 15.69936362  3841,6737.216,91.723,361.488,356.674,0.0
55409.0,STARLINK-5047,PAYLOAD,2023-02-18 01:50:12,15.69942438,0.000337,69.9982,40.8089,274.478,85.6031,0.00040616,0.00048947,0.0,0 STARLINK-5047,1 55409U 23014U   23049.07653868  .00048947  00000-0  40616-3 0  9996,2 55409  69.9982  40.8089 0003370 274.4780  85.6031 15.69942438  2930,6737.199,91.723,361.334,356.793,0.0
55409.0,STARLINK-5047,PAYLOAD,2023-02-18 11:00:43,15.69948142,0.0003319,69.9983,39.7337,268.9969,91.0847,0.00047331,0.00057144,0.0,0 STARLINK-5047,1 55409U 23014U   23049.45883614  .00057144  00000-0  47331-3 0  9992,2 55409  69.9983  39.7337 0003319 268.9969  91.0847 15.69948142  2994,6737.182,91.723,361.283,356.811,0.0
55409.0,STARLINK-5047,PAYLOAD,2023-02-18 14:04:13,15.69920931,0.0003055,69.9983,39.3753,275.7491,84.3356,0.00036073,0.00043379,0.0,0 STARLINK-5047,1 55409U 23014U   23049.58627301  .00043379  00000-0  36073-3 0  9991,2 55409  69.9983  39.3753 0003055 275.7491  84.3356 15.69920931  3958,6737.26,91.724,361.183,357.067,0.0
55409.0,STARLINK-5047,PAYLOAD,2023-02-18 18:39:29,15.6992247,0.0003507,69.9983,38.8378,265.1686,94.9109,0.00039532,0.00047589,0.0,0 STARLINK-5047,1 55409U 23014U   23049.77742113  .00047589  00000-0  39532-3 0  9991,2 55409  69.9983  38.8378 0003507 265.1686  94.9109 15.69922470  3049,6737.256,91.724,361.484,356.758,0.0
55409.0,STARLINK-5047,PAYLOAD,2023-02-19 09:57:00,15.69923655,0.0003537,69.9985,37.0459,262.8104,97.269,0.00020869,0.00024955,0.0,0 STARLINK-5047,1 55409U 23014U   23050.41458752  .00024955  00000-0  20869-3 0  9992,2 55409  69.9985  37.0459 0003537 262.8104  97.2690 15.69923655  3142,6737.252,91.724,361.5,356.734,0.0
55409.0,STARLINK-5047,PAYLOAD,2023-02-19 14:32:15,15.69916735,0.0003581,69.9986,36.5082,264.9962,95.0825,0.00030313,0.00036384,0.0,0 STARLINK-5047,1 55409U 23014U   23050.60573846  .00036384  00000-0  30313-3 0  9999,2 55409  69.9986  36.5082 0003581 264.9962  95.0825 15.69916735  4118,6737.272,91.725,361.55,356.725,0.0
55409.0,STARLINK-5047,PAYLOAD,2023-02-20 02:46:16,15.69938002,0.000355,69.9984,35.0754,262.9693,97.1099,0.00011702,0.0001389,0.0,0 STARLINK-5047,1 55409U 23014U   23051.11547062  .00013890  00000-0  11702-3 0  9995,2 55409  69.9984  35.0754 0003550 262.9693  97.1099 15.69938002  3252,6737.211,91.723,361.468,356.685,0.0
55409.0,STARLINK-5047,PAYLOAD,2023-02-20 10:25:02,15.6989916,0.000336,69.9986,34.1794,268.7764,91.3047,-0.0001086,-0.00013237,0.0,0 STARLINK-5047,1 55409U 23014U   23051.43406111 -.00013237  00000-0 -10860-3 0  9990,2 55409  69.9986  34.1794 0003360 268.7764  91.3047 15.69899160  3306,6737.323,91.726,361.451,356.924,0.0
55409.0,STARLINK-5047,PAYLOAD,2023-02-20 13:28:33,15.69882236,0.0003306,69.9988,33.8207,270.3205,89.7612,0.00017252,0.00020546,0.0,0 STARLINK-5047,1 55409U 23014U   23051.56149779  .00020546  00000-0  17252-3 0  9999,2 55409  69.9988  33.8207 0003306 270.3205  89.7612 15.69882236  4263,6737.371,91.727,361.463,357.009,0.0
55409.0,STARLINK-5047,PAYLOAD,2023-02-20 18:03:49,15.69905136,0.0003328,69.9986,33.2837,267.6414,92.4401,9.4256e-05,0.00011127,0.0,0 STARLINK-5047,1 55409U 23014U   23051.75265106  .00011127  00000-0  94256-4 0  9998,2 55409  69.9986  33.2837 0003328 267.6414  92.4401 15.69905136  3350,6737.305,91.725,361.413,356.928,0.0
55409.0,STARLINK-5047,PAYLOAD,2023-02-21 01:42:35,15.69900333,0.0003306,69.9987,32.3878,268.0915,91.9902,0.0002246,0.00026853,0.0,0 STARLINK-5047,1 55409U 23014U   23052.07124418  .00026853  00000-0  22460-3 0  9993,2 55409  69.9987  32.3878 0003306 268.0915  91.9902 15.69900333  3403,6737.319,91.726,361.412,356.957,0.0
55409.0,STARLINK-5047,PAYLOAD,2023-02-21 09:21:20,15.69992153,0.0003195,69.999,31.4916,261.3634,98.72,0.00056861,0.00068914,0.0,0 STARLINK-5047,1 55409U 23014U   23052.38981764  .00068914  00000-0  56861-3 0  9998,2 55409  69.9990  31.4916 0003195 261.3634  98.7200 15.69992153  3452,6737.056,91.72,361.074,356.769,0.0
55409.0,STARLINK-5047,PAYLOAD,2023-02-21 13:56:35,15.69975942,0.0003393,69.9991,30.9539,265.6345,94.4463,0.00030442,0.0003663,0.0,0 STARLINK-5047,1 55409U 23014U   23052.58096309  .00036630  00000-0  30442-3 0  9999,2 55409  69.9991  30.9539 0003393 265.6345  94.4463 15.69975942  4423,6737.103,91.721,361.254,356.682,0.0
55409.0,STARLINK-5047,PAYLOAD,2023-02-21 18:31:50,15.69972903,0.0003643,69.9992,30.4165,264.1896,95.8885,0.00041955,0.00050645,0.0,0 STARLINK-5047,1 55409U 23014U   23052.77210700  .00050645  00000-0  41955-3 0  9996,2 55409  69.9992  30.4165 0003643 264.1896  95.8885 15.69972903  3513,6737.112,91.721,361.431,356.522,0.0
55409.0,STARLINK-5047,PAYLOAD,2023-02-21 21:35:20,15.69955815,0.000359,69.9991,30.0583,266.4839,93.5946,0.00028363,0.00034076,0.0,0 STARLINK-5047,1 55409U 23014U   23052.89953926  .00034076  00000-0  28363-3 0  9991,2 55409  69.9991  30.0583 0003590 266.4839  93.5946 15.69955815  4477,6737.16,91.722,361.444,356.607,0.0
55409.0,STARLINK-5047,PAYLOAD,2023-02-22 02:10:35,15.69976295,0.0003581,69.9991,29.5209,267.4443,92.6342,0.00016084,0.00019214,0.0,0 STARLINK-5047,1 55409U 23014U   23053.09068347  .00019214  00000-0  16084-3 0  9992,2 55409  69.9991  29.5209 0003581 267.4443  92.6342 15.69976295  3561,6737.102,91.721,361.379,356.554,0.0
55409.0,STARLINK-5047,PAYLOAD,2023-02-22 09:49:21,15.69910025,0.0002951,69.9991,28.6253,269.6255,90.4602,-9.3058e-05,-0.00011379,0.0,0 STARLINK-5047,1 55409U 23014U   23053.40927742 -.00011379  00000-0 -93058-4 0  9993,2 55409  69.9991  28.6253 0002951 269.6255  90.4602 15.69910025  3615,6737.291,91.725,361.145,357.168,0.0
55409.0,STARLINK-5047,PAYLOAD,2023-02-22 15:56:22,15.69917594,0.0003094,69.9992,27.9087,270.36,89.7241,0.00013127,0.00015596,0.0,0 STARLINK-5047,1 55409U 23014U   23053.66414626  .00015596  00000-0  13127-3 0  9994,2 55409  69.9992  27.9087 0003094 270.3600  89.7241 15.69917594  3657,6737.27,91.725,361.219,357.05,0.0
55409.0,STARLINK-5047,PAYLOAD,2023-02-23 04:10:22,15.6995887,0.0003506,69.9993,26.4754,273.4587,86.6208,0.00037008,0.00044588,0.0,0 STARLINK-5047,1 55409U 23014U   23054.17387485  .00044588  00000-0  37008-3 0  9990,2 55409  69.9993  26.4754 0003506 273.4587  86.6208 15.69958870  3739,6737.152,91.722,361.379,356.655,0.0
55409.0,STARLINK-5047,PAYLOAD,2023-02-23 10:17:23,15.69936373,0.0002992,69.9993,25.759,278.0914,81.9942,0.00010776,0.0001277,0.0,0 STARLINK-5047,1 55409U 23014U   23054.42874418  .00012770  00000-0  10776-3 0  9996,2 55409  69.9993  25.7590 0002992 278.0914  81.9942 15.69936373  3773,6737.216,91.723,361.097,357.065,0.0
55409.0,STARLINK-5047,PAYLOAD,2023-02-24 04:38:24,15.69931831,0.0003604,69.9996,23.6093,270.8969,89.1814,0.00014363,0.00017099,0.0,0 STARLINK-5047,1 55409U 23014U   23055.19334344  .00017099  00000-0  14363-3 0  9995,2 55409  69.9996  23.6093 0003604 270.8969  89.1814 15.69931831  3897,6737.229,91.724,361.522,356.666,0.0
55409.0,STARLINK-5047,PAYLOAD,2023-02-24 06:10:09,15.69938034,0.0003403,69.9992,23.4299,270.5112,89.5694,9.0384e-05,0.00010675,0.0,0 STARLINK-5047,1 55409U 23014U   23055.25705865  .00010675  00000-0  90384-4 0  9993,2 55409  69.9992  23.4299 0003403 270.5112  89.5694 15.69938034  4841,6737.211,91.723,361.369,356.784,0.0
55409.0,STARLINK-5047,PAYLOAD,2023-02-24 21:27:41,15.69924996,0.0002716,69.9999,21.6386,269.7309,90.3576,5.0326e-05,5.843e-05,0.0,0 STARLINK-5047,1 55409U 23014U   23055.89423235  .00005843  00000-0  50326-4 0  9994,2 55409  69.9999  21.6386 0002716 269.7309  90.3576 15.69924996  4941,6737.249,91.724,360.943,357.284,0.0
55409.0,STARLINK-5047,PAYLOAD,2023-02-25 00:31:11,15.69932304,0.0002839,69.9997,21.2801,270.2576,89.8294,9.2825e-05,0.00010966,0.0,0 STARLINK-5047,1 55409U 23014U   23056.02166529  .00010966  00000-0  92825-4 0  9992,2 55409  69.9997  21.2801 0002839 270.2576  89.8294 15.69932304  4027,6737.228,91.724,361.005,357.18,0.0
55409.0,STARLINK-5047,PAYLOAD,2023-02-25 05:06:27,15.699373,0.000266,70.0,20.7429,269.4996,90.5895,0.00018522,0.00022127,0.0,0 STARLINK-5047,1 55409U 23014U   23056.21281523  .00022127  00000-0  18522-3 0  9998,2 55409  70.0000  20.7429 0002660 269.4996  90.5895 15.69937300  4996,6737.213,91.723,360.87,357.286,0.0
55409.0,STARLINK-5047,PAYLOAD,2023-02-26 00:59:13,15.69942616,0.0002526,70.0012,18.4157,240.0765,120.018,8.988e-05,0.00010615,0.0,0 STARLINK-5047,1 55409U 23014U   23057.04112685  .00010615  00000-0  89880-4 0  9997,2 55409  70.0012  18.4157 0002526 240.0765 120.0180 15.69942616  4184,6737.198,91.723,360.765,357.361,0.0
